NORAD_CAT_ID,OBJECT_NAME,OBJECT_TYPE,EPOCH,MEAN_MOTION,ECCENTRICITY,INCLINATION,RA_OF_ASC_NODE,ARG_OF_PERICENTER,MEAN_ANOMALY,BSTAR,MEAN_MOTION_DOT,MEAN_MOTION_DDOT,TLE_LINE0,TLE_LINE1,TLE_LINE2,SEMIMAJOR_AXIS,PERIOD,APOGEE,PERIGEE,DECAYED
53538.0,STARLINK-4118,PAYLOAD,2022-09-10 22:00:00,15.73224076,0.0001813,53.2157,45.2417,31.4709,199.5372,-2.4256e-05,-4.027e-05,0.0,0 STARLINK-4118,1 53538U 22101M   22253.91667824 -.00004027  00000-0 -24256-4 0  9995,2 53538  53.2157  45.2417 0001813  31.4709 199.5372 15.73224076  1306,6727.8269999999975,91.532,350.911,348.472,0.0
53538.0,STARLINK-4118,PAYLOAD,2022-09-11 04:00:00,15.73201486,0.0001626,53.216,44.0028,32.2861,175.4439,0.00042165,0.00058977,0.0,0 STARLINK-4118,1 53538U 22101M   22254.16667824  .00058977  00000-0  42165-3 0  9992,2 53538  53.2160  44.0028 0001626  32.2861 175.4439 15.73201486  3540,6727.891,91.533,350.85,348.662,0.0
53538.0,STARLINK-4118,PAYLOAD,2022-09-11 14:00:01,15.73249603,0.0001679,53.2162,41.9416,33.0869,15.8175,-0.0006195,-0.00086858,0.0,0 STARLINK-4118,1 53538U 22101M   22254.58334491 -.00086858  00000-0 -61950-3 0  9993,2 53538  53.2162  41.9416 0001679  33.0869  15.8175 15.73249603  1303,6727.754,91.53,350.74800000000016,348.48900000000015,0.0
53538.0,STARLINK-4118,PAYLOAD,2022-09-11 20:00:01,15.73160003,0.0001862,53.2164,40.7056,28.2212,357.4114,0.00070896,0.00099899,0.0,0 STARLINK-4118,1 53538U 22101M   22254.83334491  .00099899  00000-0  70896-3 0  9997,2 53538  53.2164  40.7056 0001862  28.2212 357.4114 15.73160003  3647,6728.009,91.536,351.12699999999984,348.621,0.0
53538.0,STARLINK-4118,PAYLOAD,2022-09-11 22:00:00,15.73201583,0.0001869,53.2162,40.293,27.4401,110.4101,0.00022045,0.00030433,0.0,0 STARLINK-4118,1 53538U 22101M   22254.91667824  .00030433  00000-0  22045-3 0  9997,2 53538  53.2162  40.2930 0001869  27.4401 110.4101 15.73201583  1302,6727.891,91.533,351.01300000000015,348.49800000000016,0.0
53538.0,STARLINK-4118,PAYLOAD,2022-09-12 04:00:00,15.73211331,0.0001806,53.2168,39.0542,31.69400000000001,82.8655,-6.799100000000001e-05,-0.00010156,0.0,0 STARLINK-4118,1 53538U 22101M   22255.16667824 -.00010156  00000-0 -67991-4 0  9997,2 53538  53.2168  39.0542 0001806  31.6940  82.8655 15.73211331  3703,6727.863,91.533,350.9430000000001,348.51300000000015,0.0
53538.0,STARLINK-4118,PAYLOAD,2022-09-12 12:00:00,15.73200927,0.0002026,53.217,37.4049,38.3321,165.1603,-1.333e-05,-2.492e-05,0.0,0 STARLINK-4118,1 53538U 22101M   22255.50001157 -.00002492  00000-0 -13330-4 0  9998,2 53538  53.2170  37.4049 0002026  38.3321 165.1603 15.73200927  1303,6727.893,91.533,351.121,348.394,0.0
53538.0,STARLINK-4118,PAYLOAD,2022-09-12 22:00:00,15.73210366,0.0002186,53.2163,35.3443,30.8373,13.8225,-4.5938e-05,-7.067e-05,0.0,0 STARLINK-4118,1 53538U 22101M   22255.91667824 -.00007067  00000-0 -45938-4 0  9994,2 53538  53.2163  35.3443 0002186  30.8373  13.8225 15.73210366  1308,6727.866,91.533,351.201,348.26,0.0
53538.0,STARLINK-4118,PAYLOAD,2022-09-13 06:00:00,15.73195358,0.0001855999999999,53.2164,33.693000000000005,29.1878,104.4148,-7.4757e-06,-1.67e-05,0.0,0 STARLINK-4118,1 53538U 22101M   22256.25001157 -.00001670  00000-0 -74757-5 0  9999,2 53538  53.2164  33.6930 0001856  29.1878 104.4148 15.73195358  3873,6727.908,91.533,351.022,348.525,0.0
53538.0,STARLINK-4118,PAYLOAD,2022-09-13 14:00:01,15.73228618,0.000204,53.2169,32.0449,27.4239,195.0941,-0.0005091,-0.00071559,0.0,0 STARLINK-4118,1 53538U 22101M   22256.58334491 -.00071559  00000-0 -50910-3 0  9991,2 53538  53.2169  32.0449 0002040  27.4239 195.0941 15.73228618  1303,6727.814,91.532,351.051,348.306,0.0
53538.0,STARLINK-4118,PAYLOAD,2022-09-13 22:00:00,15.73220917,0.0002221,53.2167,30.3943,26.8607,284.5815,-0.00074034,-0.00103362,0.0,0 STARLINK-4118,1 53538U 22101M   22256.91667824 -.00103362  00000-0 -74034-3 0  9998,2 53538  53.2167  30.3943 0002221  26.8607 284.5815 15.73220917  1302,6727.8359999999975,91.532,351.195,348.206,0.0
53538.0,STARLINK-4118,PAYLOAD,2022-09-14 04:00:00,15.73086555,0.0002177999999999,53.2175,29.154,35.4805,252.6762,0.0010021,0.00141729,0.0,0 STARLINK-4118,1 53538U 22101M   22257.16667824  .00141729  00000-0  10021-2 0  9998,2 53538  53.2175  29.1540 0002178  35.4805 252.6762 15.73086555  4013,6728.219,91.54,351.5490000000001,348.61800000000005,0.0
53538.0,STARLINK-4118,PAYLOAD,2022-09-14 14:00:01,15.73155888,0.0002181,53.2174,27.0939,29.2829,99.9875,0.0004013,0.00055972,0.0,0 STARLINK-4118,1 53538U 22101M   22257.58334491  .00055972  00000-0  40130-3 0  9994,2 53538  53.2174  27.0939 0002181  29.2829  99.9875 15.73155888  1304,6728.021,91.536,351.353,348.4190000000001,0.0
53538.0,STARLINK-4118,PAYLOAD,2022-09-14 20:00:01,15.73198222,0.0002161,53.2171,25.8565,29.6411,76.2957,0.00012511,0.00016972,0.0,0 STARLINK-4118,1 53538U 22101M   22257.83334491  .00016972  00000-0  12511-3 0  9991,2 53538  53.2171  25.8565 0002161  29.6411  76.2957 15.73198222  4122,6727.9,91.533,351.219,348.311,0.0
53538.0,STARLINK-4118,PAYLOAD,2022-09-14 22:00:00,15.73189631,0.0002499,53.2166,25.4477,26.9163,191.2348,0.00034895,0.00048619,0.0,0 STARLINK-4118,1 53538U 22101M   22257.91667824  .00048619  00000-0  34895-3 0  9991,2 53538  53.2166  25.4477 0002499  26.9163 191.2348 15.73189631  1305,6727.925,91.534,351.471,348.108,0.0
53538.0,STARLINK-4118,PAYLOAD,2022-09-15 14:00:01,15.73268869,0.000235,53.2169,22.1486,21.0945,14.9826,-0.00049188,-0.00069301,0.0,0 STARLINK-4118,1 53538U 22101M   22258.58334491 -.00069301  00000-0 -49188-3 0  9990,2 53538  53.2169  22.1486 0002350  21.0945  14.9826 15.73268869  1305,6727.699000000001,91.529,351.145,347.983,0.0
53538.0,STARLINK-4118,PAYLOAD,2022-09-15 22:00:00,15.73255633,0.0002494,53.2169,20.4991,18.2906,106.7608,-0.00042363,-0.00059806,0.0,0 STARLINK-4118,1 53538U 22101M   22258.91667824 -.00059806  00000-0 -42363-3 0  9993,2 53538  53.2169  20.4991 0002494  18.2906 106.7608 15.73255633  4295,6727.736999999999,91.53,351.279,347.9240000000001,0.0
53538.0,STARLINK-4118,PAYLOAD,2022-09-16 14:00:01,15.7316937,0.0002523,53.2171,17.2,15.9266,286.9945,-0.00045246,-0.00063572,0.0,0 STARLINK-4118,1 53538U 22101M   22259.58334491 -.00063572  00000-0 -45246-3 0  9996,2 53538  53.2171  17.2000 0002523  15.9266 286.9945 15.73169370  1305,6727.983,91.535,351.545,348.15,0.0
53538.0,STARLINK-4118,PAYLOAD,2022-09-16 22:00:00,15.73150005,0.0002621,53.2168,15.5505,12.1307,19.6567,0.00026823,0.00037113,0.0,0 STARLINK-4118,1 53538U 22101M   22259.91667824  .00037113  00000-0  26823-3 0  9992,2 53538  53.2168  15.5505 0002621  12.1307  19.6567 15.73150005  1302,6728.038000000001,91.536,351.666,348.139,0.0
53538.0,STARLINK-4118,PAYLOAD,2022-09-17 06:00:00,15.731505,0.0002384999999999,53.2168,13.8996,15.1132,105.5472,0.00062939,0.00088463,0.0,0 STARLINK-4118,1 53538U 22101M   22260.25001157  .00088463  00000-0  62939-3 0  9994,2 53538  53.2168  13.8996 0002385  15.1132 105.5472 15.73150500  4508,6728.036,91.536,351.506,348.297,0.0
53538.0,STARLINK-4118,PAYLOAD,2022-09-17 14:00:01,15.73241371,0.000269,53.2168,12.2521,16.0037,193.5733,-0.00022743,-0.0003248,0.0,0 STARLINK-4118,1 53538U 22101M   22260.58334491 -.00032480  00000-0 -22743-3 0  9999,2 53538  53.2168  12.2521 0002690  16.0037 193.5733 15.73241371  1307,6727.776999999999,91.531,351.452,347.832,0.0
53538.0,STARLINK-4118,PAYLOAD,2022-09-17 22:00:00,15.73210076,0.0002811,53.2169,10.6021,17.1223,281.4185,0.00012459,0.00016908,0.0,0 STARLINK-4118,1 53538U 22101M   22260.91667824  .00016908  00000-0  12459-3 0  9993,2 53538  53.2169  10.6021 0002811  17.1223 281.4185 15.73210076  4601,6727.866,91.533,351.62300000000016,347.84,0.0
53538.0,STARLINK-4118,PAYLOAD,2022-09-18 14:00:01,15.73235422,0.0002897,53.2173,7.3031,15.7978,100.7407,-5.235e-05,-7.976e-05,0.0,0 STARLINK-4118,1 53538U 22101M   22261.58335648 -.00007976  00000-0 -52350-4 0  9995,2 53538  53.2173   7.3031 0002897  15.7978 100.7407 15.73235422  1301,6727.794,91.531,351.608,347.71,0.0
53538.0,STARLINK-4118,PAYLOAD,2022-09-18 22:00:00,15.73294712,0.0002827,53.2168,5.6505,14.1882,191.2423,-0.0013587999999999,-0.00187939,0.0,0 STARLINK-4118,1 53538U 22101M   22261.91667824 -.00187939  00000-0 -13588-2 0  9992,2 53538  53.2168   5.6505 0002827  14.1882 191.2423 15.73294712  1302,6727.625,91.528,351.392,347.588,0.0
53538.0,STARLINK-4118,PAYLOAD,2022-09-19 06:00:02,15.73211909,0.0002778,53.2171,4.0022,16.1433,278.3261,8.204700000000001e-05,0.00010915,0.0,0 STARLINK-4118,1 53538U 22101M   22262.25002315  .00010915  00000-0  82047-4 0  9993,2 53538  53.2171   4.0022 0002778  16.1433 278.3261 15.73211909  4815,6727.861,91.532,351.595,347.857,0.0
53538.0,STARLINK-4118,PAYLOAD,2022-09-19 14:00:01,15.73247479,0.000305,53.2172,2.3548,15.358,7.9867,-0.00049056,-0.00069066,0.0,0 STARLINK-4118,1 53538U 22101M   22262.58334491 -.00069066  00000-0 -49056-3 0  9997,2 53538  53.2172   2.3548 0003050  15.3580   7.9867 15.73247479  1308,6727.76,91.53,351.677,347.5730000000001,0.0
53538.0,STARLINK-4118,PAYLOAD,2022-09-19 22:00:00,15.73233215,0.0003078999999999,53.2171,0.7045,13.919,98.3789,-0.00056756,-0.00079662,0.0,0 STARLINK-4118,1 53538U 22101M   22262.91667824 -.00079662  00000-0 -56756-3 0  9991,2 53538  53.2171   0.7045 0003079  13.9190  98.3789 15.73233215  4924,6727.8,91.531,351.737,347.594,0.0
53538.0,STARLINK-4118,PAYLOAD,2022-09-20 06:00:00,15.73195401,0.0002948,53.2175,359.0536,17.1214,184.1226,-2.3142e-05,-3.869e-05,0.0,0 STARLINK-4118,1 53538U 22101M   22263.25001157 -.00003869  00000-0 -23142-4 0  9990,2 53538  53.2175 359.0536 0002948  17.1214 184.1226 15.73195401  4979,6727.908,91.533,351.75699999999995,347.79,0.0
53538.0,STARLINK-4118,PAYLOAD,2022-09-20 14:00:01,15.731521300000002,0.0003288,53.2175,357.4062,15.3874,274.7832,0.00039003,0.00054371,0.0,0 STARLINK-4118,1 53538U 22101M   22263.58334491  .00054371  00000-0  39003-3 0  9990,2 53538  53.2175 357.4062 0003288  15.3874 274.7832 15.73152130  1300,6728.031999999997,91.536,352.1090000000001,347.684,0.0
